[{"OBJECT_NAME":"ONEWEB-0098","OBJECT_ID":"2020-020U","EPOCH":"2026-03-09T22:23:24.618912","MEAN_MOTION":13.11414551,"ECCENTRICITY":0.00019014,"INCLINATION":87.8863,"RA_OF_ASC_NODE":40.7976,"ARG_OF_PERICENTER":84.2689,"MEAN_ANOMALY":275.8656,"EPHEMERIS_TYPE":0,"CLASSIFICATION_TYPE":"U","NORAD_CAT_ID":45442,"ELEMENT_SET_NO":999,"REV_AT_EPOCH":28963,"BSTAR":-0.00068343356,"MEAN_MOTION_DOT":-2.3e-6,"MEAN_MOTION_DDOT":0},{"OBJECT_NAME":"NOAA 16 DEB","OBJECT_ID":"2000-055AM","EPOCH":"2026-03-09T06:40:45.212448","MEAN_MOTION":13.58382699,"ECCENTRICITY":0.02875785,"INCLINATION":98.9178,"RA_OF_ASC_NODE":193.3537,"ARG_OF_PERICENTER":275.2209,"MEAN_ANOMALY":81.618,"EPHEMERIS_TYPE":0,"CLASSIFICATION_TYPE":"U","NORAD_CAT_ID":41078,"ELEMENT_SET_NO":999,"REV_AT_EPOCH":50920,"BSTAR":0.0005870733,"MEAN_MOTION_DOT":5.18e-6,"MEAN_MOTION_DDOT":0}]
